NORAD_CAT_ID,OBJECT_NAME,OBJECT_TYPE,EPOCH,MEAN_MOTION,ECCENTRICITY,INCLINATION,RA_OF_ASC_NODE,ARG_OF_PERICENTER,MEAN_ANOMALY,BSTAR,MEAN_MOTION_DOT,MEAN_MOTION_DDOT,TLE_LINE0,TLE_LINE1,TLE_LINE2,SEMIMAJOR_AXIS,PERIOD,APOGEE,PERIGEE,DECAYED
49770.0,STARLINK-3191,PAYLOAD,2023-01-10 19:54:01,15.08835628,0.0002693,53.2158,279.0091,30.4455,329.6693,-1.5418e-05,-5.34e-06,0.0,0 STARLINK-3191,1 49770U 21115AY  23010.82918739 -.00000534  00000-0 -15418-4 0  9997,2 49770  53.2158 279.0091 0002693  30.4455 329.6693 15.08835628 62600,6917.894,95.438,541.622,537.896,0.0
49770.0,STARLINK-3191,PAYLOAD,2023-01-11 10:12:30,15.08835635,0.0002504,53.2176,276.3338,27.4093,332.7031,-7.4534e-05,-1.474e-05,0.0,0 STARLINK-3191,1 49770U 21115AY  23011.42535020 -.00001474  00000-0 -74534-4 0  9990,2 49770  53.2176 276.3338 0002504  27.4093 332.7031 15.08835635 62686,6917.894,95.438,541.491,538.026,0.0
49770.0,STARLINK-3191,PAYLOAD,2023-01-11 19:44:49,15.08828408,0.0002312,53.2145,274.5527,28.7552,331.3567,-2.005e-05,-6.07e-06,0.0,0 STARLINK-3191,1 49770U 21115AY  23011.82279737 -.00000607  00000-0 -20050-4 0  9995,2 49770  53.2145 274.5527 0002312  28.7552 331.3567 15.08828408 62750,6917.916,95.438,541.38,538.181,0.0
49770.0,STARLINK-3191,PAYLOAD,2023-01-12 16:24:50,15.08831632,0.0002589,53.2151,270.6837,32.8656,327.2497,7.9823e-05,9.82e-06,0.0,0 STARLINK-3191,1 49770U 21115AY  23012.68392104  .00000982  00000-0  79823-4 0  9990,2 49770  53.2151 270.6837 0002589  32.8656 327.2497 15.08831632 62877,6917.906,95.438,541.562,537.98,0.0
49770.0,STARLINK-3191,PAYLOAD,2023-01-13 00:21:46,15.08842661,0.0002582,53.2156,269.1981,34.9072,325.2089,0.00026911,3.998e-05,0.0,0 STARLINK-3191,1 49770U 21115AY  23013.01511728  .00003998  00000-0  26911-3 0  9992,2 49770  53.2156 269.1981 0002582  34.9072 325.2089 15.08842661 62928,6917.871999999999,95.437,541.523,537.951,0.0
49770.0,STARLINK-3191,PAYLOAD,2023-01-13 09:54:05,15.0883735,0.0002215999999999,53.2154,267.4132,37.8698,322.245,0.00015082,2.113e-05,0.0,0 STARLINK-3191,1 49770U 21115AY  23013.41255947  .00002113  00000-0  15082-3 0  9999,2 49770  53.2154 267.4132 0002216  37.8698 322.2450 15.08837350 62990,6917.888000000001,95.438,541.286,538.22,0.0
49770.0,STARLINK-3191,PAYLOAD,2023-01-13 16:15:38,15.08832732,0.0002266999999999,53.2161,266.2247,38.4479,321.6675,0.0001324,1.819e-05,0.0,0 STARLINK-3191,1 49770U 21115AY  23013.67752329  .00001819  00000-0  13240-3 0  9999,2 49770  53.2161 266.2247 0002267  38.4479 321.6675 15.08832732 63028,6917.903,95.438,541.336,538.1990000000001,0.0
49770.0,STARLINK-3191,PAYLOAD,2023-01-13 21:01:47,15.08833248,0.0002417,53.2161,265.3317,42.1922,317.9256,0.00012152,1.646e-05,0.0,0 STARLINK-3191,1 49770U 21115AY  23013.87624461  .00001646  00000-0  12152-3 0  9995,2 49770  53.2161 265.3317 0002417  42.1922 317.9256 15.08833248 63068,6917.901,95.438,541.438,538.094,0.0
49770.0,STARLINK-3191,PAYLOAD,2023-01-14 22:27:57,15.08841213,0.0002246,53.2153,260.5739,48.0225,312.0958,0.00011167,1.489e-05,0.0,0 STARLINK-3191,1 49770U 21115AY  23014.93608326  .00001489  00000-0  11167-3 0  9995,2 49770  53.2153 260.5739 0002246  48.0225 312.0958 15.08841213 63218,6917.877,95.437,541.295,538.188,0.0
49770.0,STARLINK-3191,PAYLOAD,2023-01-15 04:49:29,15.0885438,0.0002239,53.2152,259.3826,47.457,312.6611,0.0002189,3.199e-05,0.0,0 STARLINK-3191,1 49770U 21115AY  23015.20103569  .00003199  00000-0  21890-3 0  9999,2 49770  53.2152 259.3826 0002239  47.4570 312.6611 15.08854380 63253,6917.835999999999,95.437,541.25,538.153,0.0
49770.0,STARLINK-3191,PAYLOAD,2023-01-15 22:18:44,15.08851443,0.0001966,53.2161,256.1127,58.4799,301.6385,0.00040043,6.092e-05,0.0,0 STARLINK-3191,1 49770U 21115AY  23015.92968071  .00006092  00000-0  40043-3 0  9991,2 49770  53.2161 256.1127 0001966  58.4799 301.6385 15.08851443 63379,6917.845,95.437,541.07,538.35,0.0
49770.0,STARLINK-3191,PAYLOAD,2023-01-15 23:54:07,15.08858919,0.000188,53.2152,255.8137,60.173,299.9449,0.00063331,9.811e-05,0.0,0 STARLINK-3191,1 49770U 21115AY  23015.99591864  .00009811  00000-0  63331-3 0  9997,2 49770  53.2152 255.8137 0001880  60.1730 299.9449 15.08858919 63371,6917.823,95.436,540.988,538.387,0.0
49770.0,STARLINK-3191,PAYLOAD,2023-01-16 09:26:26,15.08849114,0.0001883,53.215,254.0299,59.2577,300.86,0.00040628,6.185e-05,0.0,0 STARLINK-3191,1 49770U 21115AY  23016.39336105  .00006185  00000-0  40628-3 0  9992,2 49770  53.2150 254.0299 0001883  59.2577 300.8600 15.08849114 63435,6917.853,95.437,541.02,538.415,0.0
49770.0,STARLINK-3191,PAYLOAD,2023-01-16 22:09:32,15.08831056,0.0002108,53.2131,251.6516,68.0375,292.0841,-8.4483e-05,-1.632e-05,0.0,0 STARLINK-3191,1 49770U 21115AY  23016.92328928 -.00001632  00000-0 -84483-4 0  9997,2 49770  53.2131 251.6516 0002108  68.0375 292.0841 15.08831056 63518,6917.908,95.438,541.231,538.314,0.0
49770.0,STARLINK-3191,PAYLOAD,2023-01-17 01:20:18,15.0883481,0.000192,53.2141,251.0564,60.0847,300.0336,2.4872e-05,1.08e-06,0.0,0 STARLINK-3191,1 49770U 21115AY  23017.05576938  .00000108  00000-0  24872-4 0  9999,2 49770  53.2141 251.0564 0001920  60.0847 300.0336 15.08834810 63546,6917.896,95.438,541.089,538.433,0.0
49770.0,STARLINK-3191,PAYLOAD,2023-01-17 15:38:47,15.08835408,0.0001826,53.2146,248.3803,68.8549,291.2638,0.00018796,2.704e-05,0.0,0 STARLINK-3191,1 49770U 21115AY  23017.65193295  .00002704  00000-0  18796-3 0  9997,2 49770  53.2146 248.3803 0001826  68.8549 291.2638 15.08835408 63636,6917.894,95.438,541.023,538.496,0.0
49770.0,STARLINK-3191,PAYLOAD,2023-01-17 23:35:44,15.08821217,0.0001958,53.2153,246.8938,75.8762,284.2448,1.8528e-05,7e-08,0.0,0 STARLINK-3191,1 49770U 21115AY  23017.98314861  .00000007  00000-0  18528-4 0  9995,2 49770  53.2153 246.8938 0001958  75.8762 284.2448 15.08821217 63675,6917.938,95.439,541.1569999999999,538.448,0.0
49770.0,STARLINK-3191,PAYLOAD,2023-01-18 07:32:39,15.08835856,0.0001802,53.2158,245.4065,79.4958,280.6237,0.00077344,0.00012041,0.0,0 STARLINK-3191,1 49770U 21115AY  23018.31435011  .00012041  00000-0  77344-3 0  9995,2 49770  53.2158 245.4065 0001802  79.4958 280.6237 15.08835856 63738,6917.893,95.438,541.005,538.511,0.0
49770.0,STARLINK-3191,PAYLOAD,2023-01-18 21:51:07,15.08869432,0.0001825,53.2149,242.7307,78.9054,281.2143,0.0015167,0.00023952,0.0,0 STARLINK-3191,1 49770U 21115AY  23018.91050484  .00023952  00000-0  15167-2 0  9995,2 49770  53.2149 242.7307 0001825  78.9054 281.2143 15.08869432 63812,6917.79,95.436,540.918,538.393,0.0
49770.0,STARLINK-3191,PAYLOAD,2023-01-19 07:23:26,15.08859547,0.0001758,53.215,240.9461,83.4488,276.6704,0.00044892,6.868e-05,0.0,0 STARLINK-3191,1 49770U 21115AY  23019.30794164  .00006868  00000-0  44892-3 0  9994,2 49770  53.2150 240.9461 0001758  83.4488 276.6704 15.08859547 63875,6917.821,95.436,540.9019999999999,538.469,0.0
49770.0,STARLINK-3191,PAYLOAD,2023-01-20 07:14:12,15.08856253,0.0001766999999999,53.2126,236.4866,90.8365,269.2829,0.0010288,0.00016131,0.0,0 STARLINK-3191,1 49770U 21115AY  23020.30153602  .00016131  00000-0  10288-2 0  9997,2 49770  53.2126 236.4866 0001767  90.8365 269.2829 15.08856253 64028,6917.831,95.437,540.918,538.4730000000001,0.0
49770.0,STARLINK-3191,PAYLOAD,2023-01-20 21:32:40,15.08852679,0.000171,53.2135,233.8106,94.2323,265.8864,0.0013011,0.00020487,0.0,0 STARLINK-3191,1 49770U 21115AY  23020.89769455  .00020487  00000-0  13011-2 0  9996,2 49770  53.2135 233.8106 0001710  94.2323 265.8864 15.08852679 64115,6917.842,95.437,540.89,538.524,0.0
49770.0,STARLINK-3191,PAYLOAD,2023-01-21 07:04:59,15.08854695,0.0002073999999999,53.2128,232.0244,89.8352,270.2878,0.00075806,0.00011802,0.0,0 STARLINK-3191,1 49770U 21115AY  23021.29513368  .00011802  00000-0  75806-3 0  9993,2 49770  53.2128 232.0244 0002074  89.8352 270.2878 15.08854695 64178,6917.835,95.437,541.135,538.266,0.0
49770.0,STARLINK-3191,PAYLOAD,2023-01-21 21:23:27,15.088560500000002,0.0001733,53.2143,229.3502,91.3514,268.7676,0.00072376,0.00011254,0.0,0 STARLINK-3191,1 49770U 21115AY  23021.89129041  .00011254  00000-0  72376-3 0  9990,2 49770  53.2143 229.3502 0001733  91.3514 268.7676 15.08856050 64265,6917.831,95.437,540.895,538.497,0.0
49770.0,STARLINK-3191,PAYLOAD,2023-01-22 13:17:19,15.08839564,0.0002084,53.2124,226.3771,79.8455,280.2773,0.00026345,3.907e-05,0.0,0 STARLINK-3191,1 49770U 21115AY  23022.55369438  .00003907  00000-0  26345-3 0  9991,2 49770  53.2124 226.3771 0002084  79.8455 280.2773 15.08839564 64363,6917.882,95.438,541.188,538.305,0.0
49770.0,STARLINK-3191,PAYLOAD,2023-01-23 13:08:06,15.08841143,0.0001909999999999,53.2131,221.9141,85.226,274.895,0.00035335,5.34e-05,0.0,0 STARLINK-3191,1 49770U 21115AY  23023.54729786  .00005340  00000-0  35335-3 0  9999,2 49770  53.2131 221.9141 0001910  85.2260 274.8950 15.08841143 64514,6917.877,95.437,541.063,538.4209999999999,0.0
49770.0,STARLINK-3191,PAYLOAD,2023-01-24 19:20:25,15.08846216,0.0001694,53.2148,216.2646,84.7591,275.3594,0.00023548,3.462e-05,0.0,0 STARLINK-3191,1 49770U 21115AY  23024.80585517  .00003462  00000-0  23548-3 0  9997,2 49770  53.2148 216.2646 0001694  84.7591 275.3594 15.08846216 64706,6917.861,95.437,540.898,538.555,0.0
49770.0,STARLINK-3191,PAYLOAD,2023-01-25 12:49:40,15.08842019,0.0001701,53.2136,212.9928,84.9496,275.16900000000004,7.2857e-05,8.72e-06,0.0,0 STARLINK-3191,1 49770U 21115AY  23025.53449580  .00000872  00000-0  72857-4 0  9997,2 49770  53.2136 212.9928 0001701  84.9496 275.1690 15.08842019 64818,6917.874,95.437,540.9159999999999,538.562,0.0
49770.0,STARLINK-3191,PAYLOAD,2023-01-25 19:11:12,15.08841462,0.0001645,53.2145,211.8027,85.7767,274.3413,2.1768e-05,5.8e-07,0.0,0 STARLINK-3191,1 49770U 21115AY  23025.79945546  .00000058  00000-0  21768-4 0  9999,2 49770  53.2145 211.8027 0001645  85.7767 274.3413 15.08841462 64863,6917.876,95.437,540.879,538.6030000000001,0.0
